SOYUZ-MS 28             
1 66664U 25275A   25355.56954477  .00009066  00000+0  16837-3 0  9994
2 66664  51.6324  98.7522 0003165 281.5679  78.4955 15.49703708  1280
1998-067XS              
1 66906U 98067XS  25355.49314185  .00024678  00000+0  42362-3 0  9998
2 66906  51.6316  98.9926 0002952 243.0961 116.9727 15.51010585  2979
1998-067XT              
1 66907U 98067XT  25355.48372652  .00054612  00000+0  87766-3 0  9999
2 66907  51.6316  98.9297 0003879 279.7244  80.3308 15.52463027  2973
1998-067XU              
1 66908U 98067XU  25355.03229124  .00049977  00000+0  80289-3 0  9997
2 66908  51.6311 101.1653 0003904 276.2494  83.8051 15.52510982  2909
SILVERSAT               
1 66909U 98067XV  25355.03120921  .00053716  00000+0  85685-3 0  9994
2 66909  51.6312 101.1583 0003815 279.3746  80.6813 15.52677939  2905
1998-067XW              
1 66910U 98067XW  25355.54431753  .00053617  00000+0  85387-3 0  9999
2 66910  51.6308  98.5841 0004092 255.5367 104.5169 15.52723142  2987
1998-067XX              
1 66911U 98067XX  25355.54157806  .00062319  00000+0  97482-3 0  9992
2 66911  51.6308  98.5657 0003822 260.7512  99.3046 15.53156659  2971
1998-067XY              
1 66912U 98067XY  25355.48709823  .00043530  00000+0  71547-3 0  9996
2 66912  51.6317  98.9521 0004003 271.7448  88.3083 15.51934859  2960
